0 COSMOS 1474
1 14172U 83069B   13282.05675394 -.00000038  00000-0 -13364-3 0  2486
2 14172 074.0267 188.2045 0033411 207.0141 279.8637 12.56603733388353
0 COSMOS 1474
1 14172U 83069B   13284.20333780 -.00000013  00000-0  18183-4 0  2493
2 14172 074.0266 185.3164 0033358 203.7458 270.5255 12.56603526388620
0 COSMOS 1474
1 14172U 83069B   13286.20559005  .00000015  00000-0  18934-3 0  2501
2 14172 074.0263 182.6225 0033325 200.7190 328.2415 12.56603268388878
0 COSMOS 1474
1 14172U 83069B   13288.49092251  .00000034  00000-0  30412-3 0  2516
2 14172 074.0258 179.5479 0033274 197.2313 226.5764 12.56603294389167
0 COSMOS 1474
1 14172U 83069B   13290.72845021  .00000007  00000-0  14209-3 0  2523
2 14172 074.0252 176.5374 0033233 193.8177 268.6508 12.56603683389443
0 COSMOS 1474
1 14172U 83069B   13292.87224341 -.00000012  00000-0  22451-4 0  2534
2 14172 074.0249 173.6528 0033202 190.5521 246.6895 12.56603993389710
0 COSMOS 1474
1 14172U 83069B   13295.12129073 -.00000031  00000-0 -86843-4 0  2549
2 14172 074.0248 170.6266 0033166 187.1062 340.8957 12.56603989389997
